{"type": "FeatureCollection", "features": [ {"type": "Feature", "properties": {"norad_id": 40534, "name": "GPS BIIF-9  (PRN 26)", "group": "gps-ops", "lat": 24.787958467427778, "lon": -128.00142155504818, "alt_km": 19896.368847611826, "timestamp": "2025-12-15T14:57:58.074193+00:00", "meta": {"OBJECT_NAME": "GPS BIIF-9  (PRN 26)", "OBJECT_ID": "2015-013A", "EPOCH": "2025-12-14T14:00:18.636192", "MEAN_MOTION": 2.00562523, "ECCENTRICITY": 0.01071292, "INCLINATION": 53.1975, "RA_OF_ASC_NODE": 211.8138, "ARG_OF_PERICENTER": 38.5211, "MEAN_ANOMALY": 322.322, "EPHEMERIS_TYPE": 0, "CLASSIFICATION_TYPE": "U", "NORAD_CAT_ID": 40534, "ELEMENT_SET_NO": 999, "REV_AT_EPOCH": 7812, "BSTAR": 0, "MEAN_MOTION_DOT": 6.1e-07, "MEAN_MOTION_DDOT": 0}, "tle": {"line1": "1 40534U 15013A   25348.58354903  .00000061  00000+0  00000+0 0  9990", "line2": "2 40534  53.1975 211.8138 0107129  38.5211 322.3220  2.00562523 78129"}}, "geometry": {"type": "Point", "coordinates": [-128.00142155504818, 24.787958467427778]}}, {"type": "Feature", "properties": {"norad_id": 40730, "name": "GPS BIIF-10 (PRN 08)", "group": "gps-ops", "lat": -53.96180442995391, "lon": -168.66384454152893, "alt_km": 20299.635311210423, "timestamp": "2025-12-15T14:57:58.074203+00:00", "meta": {"OBJECT_NAME": "GPS BIIF-10 (PRN 08)", "OBJECT_ID": "2015-033A", "EPOCH": "2025-12-14T17:52:33.196224", "MEAN_MOTION": 2.00565563, "ECCENTRICITY": 0.01110844, "INCLINATION": 54.1289, "RA_OF_ASC_NODE": 274.6903, "ARG_OF_PERICENTER": 26.8533, "MEAN_ANOMALY": 333.7312, "EPHEMERIS_TYPE": 0, "CLASSIFICATION_TYPE": "U", "NORAD_CAT_ID": 40730, "ELEMENT_SET_NO": 999, "REV_AT_EPOCH": 7629, "BSTAR": 0, "MEAN_MOTION_DOT": -6.9e-07, "MEAN_MOTION_DDOT": 0}, "tle": {"line1": "1 40730U 15033A   25348.74482866 -.00000069  00000+0  00000+0 0  9997", "line2": "2 40730  54.1289 274.6903 0111084  26.8533 333.7312  2.00565563 76296"}}, "geometry": {"type": "Point", "coordinates": [-168.66384454152893, -53.96180442995391]}}, {"type": "Feature", "properties": {"norad_id": 41019, "name": "GPS BIIF-11 (PRN 10)", "group": "gps-ops", "lat": -40.38312061620445, "lon": -108.33035271270525, "alt_km": 19891.733052556036, "timestamp": "2025-12-15T14:57:58.074214+00:00", "meta": {"OBJECT_NAME": "GPS BIIF-11 (PRN 10)", "OBJECT_ID": "2015-062A", "EPOCH": "2025-12-12T19:26:17.014560", "MEAN_MOTION": 2.00567164, "ECCENTRICITY": 0.01108438, "INCLINATION": 56.8322, "RA_OF_ASC_NODE": 37.9995, "ARG_OF_PERICENTER": 229.9503, "MEAN_ANOMALY": 129.1214, "EPHEMERIS_TYPE": 0, "CLASSIFICATION_TYPE": "U", "NORAD_CAT_ID": 41019, "ELEMENT_SET_NO": 999, "REV_AT_EPOCH": 7409, "BSTAR": 0, "MEAN_MOTION_DOT": -9.6e-07, "MEAN_MOTION_DDOT": 0}, "tle": {"line1": "1 41019U 15062A   25346.80991915 -.00000096  00000+0  00000+0 0  9995", "line2": "2 41019  56.8322  37.9995 0110843 229.9503 129.1214  2.00567164 74093"}}, "geometry": {"type": "Point", "coordinates": [-108.33035271270525, -40.38312061620445]}}, {"type": "Feature", "properties": {"norad_id": 41328, "name": "GPS BIIF-12 (PRN 32)", "group": "gps-ops", "lat": 8.136507906583613, "lon": -88.92086458023155, "alt_km": 20110.068657086034, "timestamp": "2025-12-15T14:57:58.074224+00:00", "meta": {"OBJECT_NAME": "GPS BIIF-12 (PRN 32)", "OBJECT_ID": "2016-007A", "EPOCH": "2025-12-14T09:19:00.023808", "MEAN_MOTION": 2.00560678, "ECCENTRICITY": 0.00922324, "INCLINATION": 55.4071, "RA_OF_ASC_NODE": 96.7915, "ARG_OF_PERICENTER": 243.6085, "MEAN_ANOMALY": 115.4276, "EPHEMERIS_TYPE": 0, "CLASSIFICATION_TYPE": "U", "NORAD_CAT_ID": 41328, "ELEMENT_SET_NO": 999, "REV_AT_EPOCH": 7213, "BSTAR": 0, "MEAN_MOTION_DOT": -2.9e-07, "MEAN_MOTION_DDOT": 0}, "tle": {"line1": "1 41328U 16007A   25348.38819472 -.00000029  00000+0  00000+0 0  9996", "line2": "2 41328  55.4071  96.7915 0092232 243.6085 115.4276  2.00560678 72138"}}, "geometry": {"type": "Point", "coordinates": [-88.92086458023155, 8.136507906583613]}}, {"type": "Feature", "properties": {"norad_id": 43873, "name": "GPS BIII-1  (PRN 04)", "group": "gps-ops", "lat": 48.54367737981883, "lon": 150.29345885409964, "alt_km": 20240.609390524787, "timestamp": "2025-12-15T14:57:58.074234+00:00", "meta": {"OBJECT_NAME": "GPS BIII-1  (PRN 04)", "OBJECT_ID": "2018-109A", "EPOCH": "2025-12-14T18:33:31.413600", "MEAN_MOTION": 2.00553757, "ECCENTRICITY": 0.00374, "INCLINATION": 55.5684, "RA_OF_ASC_NODE": 99.4666, "ARG_OF_PERICENTER": 195.0912, "MEAN_ANOMALY": 336.5701, "EPHEMERIS_TYPE": 0, "CLASSIFICATION_TYPE": "U", "NORAD_CAT_ID": 43873, "ELEMENT_SET_NO": 999, "REV_AT_EPOCH": 5137, "BSTAR": 0, "MEAN_MOTION_DOT": -2.6e-07, "MEAN_MOTION_DDOT": 0}, "tle": {"line1": "1 43873U 18109A   25348.77328025 -.00000026  00000+0  00000+0 0  9997", "line2": "2 43873  55.5684  99.4666 0037400 195.0912 336.5701  2.00553757 51376"}}, "geometry": {"type": "Point", "coordinates": [150.29345885409964, 48.54367737981883]}}, {"type": "Feature", "properties": {"norad_id": 44506, "name": "GPS BIII-2  (PRN 18)", "group": "gps-ops", "lat": -29.64096617404974, "lon": -44.40493152202171, "alt_km": 20272.22841708708, "timestamp": "2025-12-15T14:57:58.074244+00:00", "meta": {"OBJECT_NAME": "GPS BIII-2  (PRN 18)", "OBJECT_ID": "2019-056A", "EPOCH": "2025-12-14T10:00:28.721376", "MEAN_MOTION": 2.00566469, "ECCENTRICITY": 0.00577186, "INCLINATION": 55.7208, "RA_OF_ASC_NODE": 338.4855, "ARG_OF_PERICENTER": 198.4901, "MEAN_ANOMALY": 332.9722, "EPHEMERIS_TYPE": 0, "CLASSIFICATION_TYPE": "U", "NORAD_CAT_ID": 44506, "ELEMENT_SET_NO": 999, "REV_AT_EPOCH": 4636, "BSTAR": 0, "MEAN_MOTION_DOT": -8.9e-07, "MEAN_MOTION_DDOT": 0}, "tle": {"line1": "1 44506U 19056A   25348.41699909 -.00000089  00000+0  00000+0 0  9995", "line2": "2 44506  55.7208 338.4855 0057718 198.4901 332.9722  2.00566469 46369"}}, "geometry": {"type": "Point", "coordinates": [-44.40493152202171, -29.64096617404974]}}, {"type": "Feature", "properties": {"norad_id": 45854, "name": "GPS BIII-3  (PRN 23)", "group": "gps-ops", "lat": -56.4583191713722, "lon": -58.78538543211716, "alt_km": 20116.221115734774, "timestamp": "2025-12-15T14:57:58.074254+00:00", "meta": {"OBJECT_NAME": "GPS BIII-3  (PRN 23)", "OBJECT_ID": "2020-041A", "EPOCH": "2025-12-14T06:05:38.632704", "MEAN_MOTION": 2.00561996, "ECCENTRICITY": 0.00605369, "INCLINATION": 56.5481, "RA_OF_ASC_NODE": 36.1263, "ARG_OF_PERICENTER": 203.4842, "MEAN_ANOMALY": 154.2741, "EPHEMERIS_TYPE": 0, "CLASSIFICATION_TYPE": "U", "NORAD_CAT_ID": 45854, "ELEMENT_SET_NO": 999, "REV_AT_EPOCH": 4032, "BSTAR": 0, "MEAN_MOTION_DOT": -9.4e-07, "MEAN_MOTION_DDOT": 0}, "tle": {"line1": "1 45854U 20041A   25348.25391936 -.00000094  00000+0  00000+0 0  9995", "line2": "2 45854  56.5481  36.1263 0060536 203.4842 154.2741  2.00561996 40322"}}, "geometry": {"type": "Point", "coordinates": [-58.78538543211716, -56.4583191713722]}}, {"type": "Feature", "properties": {"norad_id": 46826, "name": "GPS BIII-4  (PRN 14)", "group": "gps-ops", "lat": -43.41642043343524, "lon": 81.63288533013952, "alt_km": 20045.01628260631, "timestamp": "2025-12-15T14:57:58.074264+00:00", "meta": {"OBJECT_NAME": "GPS BIII-4  (PRN 14)", "OBJECT_ID": "2020-078A", "EPOCH": "2025-12-14T12:30:57.028896", "MEAN_MOTION": 2.00566857, "ECCENTRICITY": 0.00647079, "INCLINATION": 54.0147, "RA_OF_ASC_NODE": 218.2686, "ARG_OF_PERICENTER": 203.3807, "MEAN_ANOMALY": 318.6031, "EPHEMERIS_TYPE": 0, "CLASSIFICATION_TYPE": "U", "NORAD_CAT_ID": 46826, "ELEMENT_SET_NO": 999, "REV_AT_EPOCH": 3780, "BSTAR": 0, "MEAN_MOTION_DOT": 4.8e-07, "MEAN_MOTION_DDOT": 0}, "tle": {"line1": "1 46826U 20078A   25348.52149339  .00000048  00000+0  00000+0 0  9991", "line2": "2 46826  54.0147 218.2686 0064707 203.3807 318.6031  2.00566857 37808"}}, "geometry": {"type": "Point", "coordinates": [81.63288533013952, -43.41642043343524]}}, {"type": "Feature", "properties": {"norad_id": 48859, "name": "GPS BIII-5  (PRN 11)", "group": "gps-ops", "lat": 47.00741219859011, "lon": 27.941718900114513, "alt_km": 20242.203648361738, "timestamp": "2025-12-15T14:57:58.074275+00:00", "meta": {"OBJECT_NAME": "GPS BIII-5  (PRN 11)", "OBJECT_ID": "2021-054A", "EPOCH": "2025-12-08T04:14:32.423424", "MEAN_MOTION": 2.00553627, "ECCENTRICITY": 0.0024678, "INCLINATION": 55.2581, "RA_OF_ASC_NODE": 340.1367, "ARG_OF_PERICENTER": 233.3994, "MEAN_ANOMALY": 212.8593, "EPHEMERIS_TYPE": 0, "CLASSIFICATION_TYPE": "U", "NORAD_CAT_ID": 48859, "ELEMENT_SET_NO": 999, "REV_AT_EPOCH": 3292, "BSTAR": 0, "MEAN_MOTION_DOT": -8.6e-07, "MEAN_MOTION_DDOT": 0}, "tle": {"line1": "1 48859U 21054A   25342.17676416 -.00000086  00000+0  00000+0 0  9993", "line2": "2 48859  55.2581 340.1367 0024678 233.3994 212.8593  2.00553627 32922"}}, "geometry": {"type": "Point", "coordinates": [27.941718900114513, 47.00741219859011]}}, {"type": "Feature", "properties": {"norad_id": 55268, "name": "GPS BIII-6  (PRN 28)", "group": "gps-ops", "lat": 52.2088150824625, "lon": -88.48795665810268, "alt_km": 20179.81428157809, "timestamp": "2025-12-15T14:57:58.074285+00:00", "meta": {"OBJECT_NAME": "GPS BIII-6  (PRN 28)", "OBJECT_ID": "2023-009A", "EPOCH": "2025-12-13T12:37:03.021024", "MEAN_MOTION": 2.00555696, "ECCENTRICITY": 0.00037118, "INCLINATION": 55.1051, "RA_OF_ASC_NODE": 155.8142, "ARG_OF_PERICENTER": 357.4368, "MEAN_ANOMALY": 33.2544, "EPHEMERIS_TYPE": 0, "CLASSIFICATION_TYPE": "U", "NORAD_CAT_ID": 55268, "ELEMENT_SET_NO": 999, "REV_AT_EPOCH": 2152, "BSTAR": 0, "MEAN_MOTION_DOT": 1e-06, "MEAN_MOTION_DDOT": 0}, "tle": {"line1": "1 55268U 23009A   25347.52572941  .00000100  00000+0  00000+0 0  9995", "line2": "2 55268  55.1051 155.8142 0003711 357.4368  33.2544  2.00555696 21528"}}, "geometry": {"type": "Point", "coordinates": [-88.48795665810268, 52.2088150824625]}}]}